{
  "links" : {
    "next" : "https://api.nasa.gov/neo/rest/v1/feed?start_date=2013-07-16&end_date=2013-07-16&detailed=true&api_key=t0TVs3DtDT2H8Oy2Zy8m2eVrNsAVKAexjcZXUckd",
    "prev" : "https://api.nasa.gov/neo/rest/v1/feed?start_date=2013-07-14&end_date=2013-07-14&detailed=true&api_key=t0TVs3DtDT2H8Oy2Zy8m2eVrNsAVKAexjcZXUckd",
    "self" : "https://api.nasa.gov/neo/rest/v1/feed?start_date=2013-07-15&end_date=2013-07-15&detailed=true&api_key=t0TVs3DtDT2H8Oy2Zy8m2eVrNsAVKAexjcZXUckd"
  },
  "element_count" : 6,
  "near_earth_objects" : {
    "2013-07-15" : [ {
      "links" : {
        "self" : "https://api.nasa.gov/neo/rest/v1/neo/3645039?api_key=t0TVs3DtDT2H8Oy2Zy8m2eVrNsAVKAexjcZXUckd"
      },
      "neo_reference_id" : "3645039",
      "name" : "(2013 NB15)",
      "nasa_jpl_url" : "http://ssd.jpl.nasa.gov/sbdb.cgi?sstr=3645039",
      "absolute_magnitude_h" : 26.7,
      "estimated_diameter" : {
        "kilometers" : {
          "estimated_diameter_min" : 0.0121494041,
          "estimated_diameter_max" : 0.0271668934
        },
        "meters" : {
          "estimated_diameter_min" : 12.14940408,
          "estimated_diameter_max" : 27.1668934089
        },
        "miles" : {
          "estimated_diameter_min" : 0.0075492874,
          "estimated_diameter_max" : 0.0168807197
        },
        "feet" : {
          "estimated_diameter_min" : 39.8602508817,
          "estimated_diameter_max" : 89.1302305717
        }
      },
      "is_potentially_hazardous_asteroid" : false,
      "close_approach_data" : [ {
        "close_approach_date" : "2013-07-15",
        "epoch_date_close_approach" : 1373871600000,
        "relative_velocity" : {
          "kilometers_per_second" : "8.755096044",
          "kilometers_per_hour" : "31518.3457585129",
          "miles_per_hour" : "19584.2743408937"
        },
        "miss_distance" : {
          "astronomical" : "0.0282294783",
          "lunar" : "10.9812669754",
          "kilometers" : "4223070",
          "miles" : "2624094"
        },
        "orbiting_body" : "Earth"
      } ],
      "orbital_data" : {
        "orbit_id" : "5",
        "orbit_determination_date" : "2017-04-06 08:45:24",
        "orbit_uncertainty" : "8",
        "minimum_orbit_intersection" : ".0258557",
        "jupiter_tisserand_invariant" : "4.018",
        "epoch_osculation" : "2456487.5",
        "eccentricity" : ".4202834339330183",
        "semi_major_axis" : "1.744221713322629",
        "inclination" : "9.949305962112311",
        "ascending_node_longitude" : "110.3562507419305",
        "orbital_period" : "841.3970010808791",
        "perihelion_distance" : "1.011154222106862",
        "perihelion_argument" : "208.6807919198183",
        "aphelion_distance" : "2.477289204538397",
        "perihelion_time" : "2456511.494679126542",
        "mean_anomaly" : "349.7336400362036",
        "mean_motion" : ".4278598563312387",
        "equinox" : "J2000"
      }
    }, {
      "links" : {
        "self" : "https://api.nasa.gov/neo/rest/v1/neo/2243147?api_key=t0TVs3DtDT2H8Oy2Zy8m2eVrNsAVKAexjcZXUckd"
      },
      "neo_reference_id" : "2243147",
      "name" : "243147 (2007 TX18)",
      "nasa_jpl_url" : "http://ssd.jpl.nasa.gov/sbdb.cgi?sstr=2243147",
      "absolute_magnitude_h" : 17.3,
      "estimated_diameter" : {
        "kilometers" : {
          "estimated_diameter_min" : 0.9216265485,
          "estimated_diameter_max" : 2.0608196123
        },
        "meters" : {
          "estimated_diameter_min" : 921.6265485028,
          "estimated_diameter_max" : 2060.8196123208
        },
        "miles" : {
          "estimated_diameter_min" : 0.5726720101,
          "estimated_diameter_max" : 1.2805335433
        },
        "feet" : {
          "estimated_diameter_min" : 3023.70924539,
          "estimated_diameter_max" : 6761.2194168867
        }
      },
      "is_potentially_hazardous_asteroid" : false,
      "close_approach_data" : [ {
        "close_approach_date" : "2013-07-15",
        "epoch_date_close_approach" : 1373871600000,
        "relative_velocity" : {
          "kilometers_per_second" : "4.5520803126",
          "kilometers_per_hour" : "16387.4891252939",
          "miles_per_hour" : "10182.5484512139"
        },
        "miss_distance" : {
          "astronomical" : "0.2544011907",
          "lunar" : "98.962059021",
          "kilometers" : "38057876",
          "miles" : "23648066"
        },
        "orbiting_body" : "Earth"
      } ],
      "orbital_data" : {
        "orbit_id" : "125",
        "orbit_determination_date" : "2017-04-06 09:24:58",
        "orbit_uncertainty" : "0",
        "minimum_orbit_intersection" : ".237887",
        "jupiter_tisserand_invariant" : "3.591",
        "epoch_osculation" : "2458000.5",
        "eccentricity" : ".4148123045179745",
        "semi_major_axis" : "2.138128286869699",
        "inclination" : "7.352663484061734",
        "ascending_node_longitude" : "284.1357692538773",
        "orbital_period" : "1141.955197761819",
        "perihelion_distance" : "1.25120636483821",
        "perihelion_argument" : "16.01615176343327",
        "aphelion_distance" : "3.025050208901187",
        "perihelion_time" : "2457645.425802229791",
        "mean_anomaly" : "111.93671297071",
        "mean_motion" : ".3152487949663734",
        "equinox" : "J2000"
      }
    }, {
      "links" : {
        "self" : "https://api.nasa.gov/neo/rest/v1/neo/3485260?api_key=t0TVs3DtDT2H8Oy2Zy8m2eVrNsAVKAexjcZXUckd"
      },
      "neo_reference_id" : "3485260",
      "name" : "(2010 AF30)",
      "nasa_jpl_url" : "http://ssd.jpl.nasa.gov/sbdb.cgi?sstr=3485260",
      "absolute_magnitude_h" : 21.7,
      "estimated_diameter" : {
        "kilometers" : {
          "estimated_diameter_min" : 0.1214940408,
          "estimated_diameter_max" : 0.2716689341
        },
        "meters" : {
          "estimated_diameter_min" : 121.4940407996,
          "estimated_diameter_max" : 271.6689340891
        },
        "miles" : {
          "estimated_diameter_min" : 0.0754928736,
          "estimated_diameter_max" : 0.1688071972
        },
        "feet" : {
          "estimated_diameter_min" : 398.6025088171,
          "estimated_diameter_max" : 891.3023057169
        }
      },
      "is_potentially_hazardous_asteroid" : true,
      "close_approach_data" : [ {
        "close_approach_date" : "2013-07-15",
        "epoch_date_close_approach" : 1373871600000,
        "relative_velocity" : {
          "kilometers_per_second" : "9.6886612629",
          "kilometers_per_hour" : "34879.1805464685",
          "miles_per_hour" : "21672.5663789987"
        },
        "miss_distance" : {
          "astronomical" : "0.0457247923",
          "lunar" : "17.7869434357",
          "kilometers" : "6840331.5",
          "miles" : "4250385"
        },
        "orbiting_body" : "Earth"
      } ],
      "orbital_data" : {
        "orbit_id" : "25",
        "orbit_determination_date" : "2017-04-06 08:58:37",
        "orbit_uncertainty" : "0",
        "minimum_orbit_intersection" : ".0432045",
        "jupiter_tisserand_invariant" : "4.864",
        "epoch_osculation" : "2458000.5",
        "eccentricity" : ".371624736047211",
        "semi_major_axis" : "1.324577058854684",
        "inclination" : "3.059095690667383",
        "ascending_node_longitude" : "62.43161537718095",
        "orbital_period" : "556.8192875786732",
        "perihelion_distance" : ".8323314589836212",
        "perihelion_argument" : "162.7854965171327",
        "aphelion_distance" : "1.816822658725747",
        "perihelion_time" : "2458107.697376860348",
        "mean_anomaly" : "290.6937519396312",
        "mean_motion" : ".6465293283310259",
        "equinox" : "J2000"
      }
    } ]
  }
}